TDRS 3                  
1 19548U 88091B   24254.47344260 -.00000289  00000+0  00000+0 0  9998
2 19548  13.0980 345.3158 0034827 336.0766 150.2004  1.00276448118929
HST                     
1 20580U 90037B   24254.89395403  .00014387  00000+0  65267-3 0  9993
2 20580  28.4669 130.3127 0002359 266.4019  93.6304 15.19325237690071
TDRS 5                  
1 21639U 91054B   24255.21323253 -.00000293  00000+0  00000+0 0  9992
2 21639  14.1518 358.4675 0005531 223.5252 143.2841  1.00271097121257
TDRS 6                  
1 22314U 93003B   24254.08313299 -.00000286  00000+0  00000+0 0  9994
2 22314  14.1660   1.7844 0011677 171.5468 160.1525  1.00279666115936
TDRS 7                  
1 23613U 95035B   24254.88511466 -.00000192  00000+0  00000+0 0  9994
2 23613  13.6463 352.6222 0024943  77.3118 323.9933  1.00269436106797
ISS (ZARYA)             
1 25544U 98067A   24255.49719987  .00027433  00000+0  50544-3 0  9991
2 25544  51.6378 247.8221 0007196 341.4720 127.2372 15.48916975471935
LANDSAT 7               
1 25682U 99020A   24255.54495269  .00002043  00000+0  42613-3 0  9992
2 25682  97.8846 278.2524 0001830  90.9420  65.5740 14.60921773351807
TERRA                   
1 25994U 99068A   24255.52321685  .00002169  00000+0  46087-3 0  9996
2 25994  98.0400 316.4522 0003316  95.3923   9.0119 14.60044556315766
TDRS 8                  
1 26388U 00034A   24255.04937626  .00000101  00000+0  00000+0 0  9999
2 26388  11.6635  36.5067 0005045 188.5969 335.6514  1.00272685 88710
TIMED                   
1 26998U 01055B   24255.56363237  .00004803  00000+0  47711-3 0  9995
2 26998  74.0696  88.2907 0000736 166.3312 193.7891 14.92004362234840
AQUA                    
1 27424U 02022A   24255.48694149  .00004066  00000+0  86000-3 0  9990
2 27424  98.3364 205.2319 0001429 111.1810   1.1687 14.59840672189305
TDRS 10                 
1 27566U 02055A   24254.78248155  .00000096  00000+0  00000+0 0  9998
2 27566   9.7187  44.7427 0002169 330.2782  86.1157  1.00280470 79771
SORCE                   
1 27651U 03004A   24255.49690850  .00009008  00000+0  79141-3 0  9998
2 27651  39.9936 317.0639 0020418 129.0756 231.1856 14.96323141175199
AURA                    
1 28376U 04026A   24255.51961236  .00004329  00000+0  93017-3 0  9999
2 28376  98.2554 199.7979 0001990 112.5266 247.6144 14.59064989 72309
SWIFT                   
1 28485U 04047A   24255.38652231  .00027662  00000+0  11303-2 0  9992
2 28485  20.5565 282.7351 0006713 312.7408  47.2464 15.22511024 87467
THEMIS A                
1 30580U 07004A   24253.71618063 -.00000141  00000+0  00000+0 0  9990
2 30580   9.1532 258.7459 8376131 335.5699   0.9373  0.87835020 60299
THEMIS D                
1 30797U 07004D   24255.53389046 -.00000050  00000+0  00000+0 0  9997
2 30797   4.7210 257.9006 8368533 340.6945 204.2122  0.87836450 59837
THEMIS E                
1 30798U 07004E   24254.76553823 -.00000060  00000+0  00000+0 0  9999
2 30798   6.7060 277.9115 8357198 321.7411 335.6074  0.87833653 60243
FGRST (GLAST)           
1 33053U 08029A   24254.67034739  .00009901  00000+0  46011-3 0  9992
2 33053  25.5838 341.8578 0009339 313.2721  46.7036 15.17809157897572
TDRS 11                 
1 39070U 13004A   24255.19099118  .00000086  00000+0  00000+0 0  9995
2 39070   2.7927  14.6187 0004058  66.5062 163.9579  1.00275751 42528
TDRS 12                 
1 39504U 14004A   24255.14598716 -.00000263  00000+0  00000+0 0  9999
2 39504   3.5659   5.4334 0005804 210.1077 146.8148  1.00270743 38990
GPM-CORE                
1 39574U 14009C   24255.55739029  .00023871  00000+0  50329-3 0  9992
2 39574  64.9838 303.8600 0008589 262.9209  97.0955 15.45178567598419
MMS 1                   
1 40482U 15011A   24255.58334491 -.00002228  00000+0  00000+0 0  9994
2 40482  52.8980   5.7321 9032018 151.0908 323.9270  0.28398908 15624
MMS 2                   
1 40483U 15011B   24255.58334491 -.00002228  00000+0  00000+0 0  9995
2 40483  52.8994   5.7314 9032028 151.0911 322.8653  0.28395095 15602
MMS 3                   
1 40484U 15011C   24255.58334491 -.00002228  00000+0  00000+0 0  9996
2 40484  52.9010   5.7300 9031855 151.0904 322.9761  0.28402769 15605
MMS 4                   
1 40485U 15011D   24255.58334491 -.00002232  00000+0  00000+0 0  9992
2 40485  52.9131   5.7240 9032145 151.0907 313.7181  0.28354003 15600
TDRS 13                 
1 42915U 17047A   24255.36643920 -.00000091  00000+0  00000+0 0  9990
2 42915   3.5797 346.4647 0016011 127.6207 357.3027  1.00272289 25928
NOAA 20 (JPSS-1)        
1 43013U 17073A   24255.54397429  .00000475  00000+0  24568-3 0  9993
2 43013  98.7093 192.0276 0001400  29.2846 330.8409 14.19584003353151
